{
  "type": "FeatureCollection",
  "features": [
    {
      "type": "Feature",
      "properties": {
        "norad_id": 38250,
        "name": "BEIDOU-2 M3 (C11)",
        "group": "beidou",
        "lat": 30.76219631504601,
        "lon": -24.870125735510882,
        "alt_km": 21562.91282045881,
        "timestamp": "2025-12-05T09:41:19.393020+00:00",
        "meta_object_name": "BEIDOU-2 M3 (C11)",
        "meta_object_id": "2012-018A",
        "meta_epoch": "2025-12-04T06:32:53.001888",
        "meta_mean_motion": 1.86229694,
        "meta_eccentricity": 0.0024462,
        "meta_inclination": 55.9274,
        "meta_ra_of_asc_node": 311.4423,
        "meta_arg_of_pericenter": 273.73,
        "meta_mean_anomaly": 85.9745,
        "meta_ephemeris_type": 0,
        "meta_classification_type": "U",
        "meta_norad_cat_id": 38250,
        "meta_element_set_no": 999,
        "meta_rev_at_epoch": 9231,
        "meta_bstar": 0,
        "meta_mean_motion_dot": -6.8e-07,
        "meta_mean_motion_ddot": 0,
        "tle_line1": "1 38250U 12018A   25338.27283567 -.00000068  00000+0  00000+0 0  9994",
        "tle_line2": "2 38250  55.9274 311.4423 0024462 273.7300  85.9745  1.86229694 92310"
      },
      "geometry": {
        "type": "Point",
        "coordinates": [
          -24.870125735510882,
          30.76219631504601
        ]
      }
    },
    {
      "type": "Feature",
      "properties": {
        "norad_id": 38251,
        "name": "BEIDOU-2 M4 (C12)",
        "group": "beidou",
        "lat": 55.30389104176134,
        "lon": 29.364401331759904,
        "alt_km": 21564.292959259932,
        "timestamp": "2025-12-05T09:41:19.393032+00:00",
        "meta_object_name": "BEIDOU-2 M4 (C12)",
        "meta_object_id": "2012-018B",
        "meta_epoch": "2025-12-04T04:55:01.467840",
        "meta_mean_motion": 1.86229385,
        "meta_eccentricity": 0.0015607,
        "meta_inclination": 55.8289,
        "meta_ra_of_asc_node": 310.6742,
        "meta_arg_of_pericenter": 276.8686,
        "meta_mean_anomaly": 82.9379,
        "meta_ephemeris_type": 0,
        "meta_classification_type": "U",
        "meta_norad_cat_id": 38251,
        "meta_element_set_no": 999,
        "meta_rev_at_epoch": 9231,
        "meta_bstar": 0,
        "meta_mean_motion_dot": -6.8e-07,
        "meta_mean_motion_ddot": 0,
        "tle_line1": "1 38251U 12018B   25338.20487810 -.00000068  00000+0  00000+0 0  9995",
        "tle_line2": "2 38251  55.8289 310.6742 0015607 276.8686  82.9379  1.86229385 92310"
      },
      "geometry": {
        "type": "Point",
        "coordinates": [
          29.364401331759904,
          55.30389104176134
        ]
      }
    },
    {
      "type": "Feature",
      "properties": {
        "norad_id": 38775,
        "name": "BEIDOU-2 M6 (C14)",
        "group": "beidou",
        "lat": -55.685051487392116,
        "lon": -7.469921866431228,
        "alt_km": 21523.11346337078,
        "timestamp": "2025-12-05T09:41:19.393044+00:00",
        "meta_object_name": "BEIDOU-2 M6 (C14)",
        "meta_object_id": "2012-050B",
        "meta_epoch": "2025-12-02T20:12:21.766176",
        "meta_mean_motion": 1.86230699,
        "meta_eccentricity": 0.00108906,
        "meta_inclination": 56.3701,
        "meta_ra_of_asc_node": 69.396,
        "meta_arg_of_pericenter": 346.3051,
        "meta_mean_anomaly": 13.6678,
        "meta_ephemeris_type": 0,
        "meta_classification_type": "U",
        "meta_norad_cat_id": 38775,
        "meta_element_set_no": 999,
        "meta_rev_at_epoch": 8965,
        "meta_bstar": 0,
        "meta_mean_motion_dot": -4.8e-07,
        "meta_mean_motion_ddot": 0,
        "tle_line1": "1 38775U 12050B   25336.84191859 -.00000048  00000+0  00000+0 0  9993",
        "tle_line2": "2 38775  56.3701  69.3960 0010890 346.3051  13.6678  1.86230699 89650"
      },
      "geometry": {
        "type": "Point",
        "coordinates": [
          -7.469921866431228,
          -55.685051487392116
        ]
      }
    },
    {
      "type": "Feature",
      "properties": {
        "norad_id": 38953,
        "name": "BEIDOU-2 G6 (C02)",
        "group": "beidou",
        "lat": -2.941800850956825,
        "lon": -56.31399298123015,
        "alt_km": 35772.035764014145,
        "timestamp": "2025-12-05T09:41:19.393056+00:00",
        "meta_object_name": "BEIDOU-2 G6 (C02)",
        "meta_object_id": "2012-059A",
        "meta_epoch": "2025-12-04T17:33:05.126976",
        "meta_mean_motion": 1.00270477,
        "meta_eccentricity": 0.0007414,
        "meta_inclination": 3.9275,
        "meta_ra_of_asc_node": 75.582,
        "meta_arg_of_pericenter": 289.5187,
        "meta_mean_anomaly": 56.0172,
        "meta_ephemeris_type": 0,
        "meta_classification_type": "U",
        "meta_norad_cat_id": 38953,
        "meta_element_set_no": 999,
        "meta_rev_at_epoch": 4795,
        "meta_bstar": 0,
        "meta_mean_motion_dot": -1.64e-06,
        "meta_mean_motion_ddot": 0,
        "tle_line1": "1 38953U 12059A   25338.73130934 -.00000164  00000+0  00000+0 0  9996",
        "tle_line2": "2 38953   3.9275  75.5820 0007414 289.5187  56.0172  1.00270477 47953"
      },
      "geometry": {
        "type": "Point",
        "coordinates": [
          -56.31399298123015,
          -2.941800850956825
        ]
      }
    },
    {
      "type": "Feature",
      "properties": {
        "norad_id": 40748,
        "name": "BEIDOU-3S M2S (C58)",
        "group": "beidou",
        "lat": -41.39712783143621,
        "lon": -89.35362542420908,
        "alt_km": 21505.98442896972,
        "timestamp": "2025-12-05T09:41:19.393067+00:00",
        "meta_object_name": "BEIDOU-3S M2S (C58)",
        "meta_object_id": "2015-037A",
        "meta_epoch": "2025-12-04T09:50:19.275648",
        "meta_mean_motion": 1.86229056,
        "meta_eccentricity": 0.00124,
        "meta_inclination": 55.0462,
        "meta_ra_of_asc_node": 308.7497,
        "meta_arg_of_pericenter": 267.6151,
        "meta_mean_anomaly": 92.2259,
        "meta_ephemeris_type": 0,
        "meta_classification_type": "U",
        "meta_norad_cat_id": 40748,
        "meta_element_set_no": 999,
        "meta_rev_at_epoch": 7049,
        "meta_bstar": 0,
        "meta_mean_motion_dot": -6.8e-07,
        "meta_mean_motion_ddot": 0,
        "tle_line1": "1 40748U 15037A   25338.40994532 -.00000068  00000+0  00000+0 0  9999",
        "tle_line2": "2 40748  55.0462 308.7497 0012400 267.6151  92.2259  1.86229056 70498"
      },
      "geometry": {
        "type": "Point",
        "coordinates": [
          -89.35362542420908,
          -41.39712783143621
        ]
      }
    },
    {
      "type": "Feature",
      "properties": {
        "norad_id": 40749,
        "name": "BEIDOU-3S M1S (C57)",
        "group": "beidou",
        "lat": 23.15365443113761,
        "lon": 111.28428589875918,
        "alt_km": 21531.4062614172,
        "timestamp": "2025-12-05T09:41:19.393079+00:00",
        "meta_object_name": "BEIDOU-3S M1S (C57)",
        "meta_object_id": "2015-037B",
        "meta_epoch": "2025-12-01T22:57:46.412352",
        "meta_mean_motion": 1.86253762,
        "meta_eccentricity": 0.0003321,
        "meta_inclination": 55.0451,
        "meta_ra_of_asc_node": 308.8236,
        "meta_arg_of_pericenter": 355.9906,
        "meta_mean_anomaly": 3.9975,
        "meta_ephemeris_type": 0,
        "meta_classification_type": "U",
        "meta_norad_cat_id": 40749,
        "meta_element_set_no": 999,
        "meta_rev_at_epoch": 7045,
        "meta_bstar": 0,
        "meta_mean_motion_dot": -6e-07,
        "meta_mean_motion_ddot": 0,
        "tle_line1": "1 40749U 15037B   25335.95678718 -.00000060  00000+0  00000+0 0  9994",
        "tle_line2": "2 40749  55.0451 308.8236 0003321 355.9906   3.9975  1.86253762 70451"
      },
      "geometry": {
        "type": "Point",
        "coordinates": [
          111.28428589875918,
          23.15365443113761
        ]
      }
    },
    {
      "type": "Feature",
      "properties": {
        "norad_id": 40938,
        "name": "BEIDOU-3S IGSO-2S (C56)",
        "group": "beidou",
        "lat": 38.16611313165665,
        "lon": -56.901697438264144,
        "alt_km": 35961.48742953117,
        "timestamp": "2025-12-05T09:41:19.393090+00:00",
        "meta_object_name": "BEIDOU-3S IGSO-2S (C56)",
        "meta_object_id": "2015-053A",
        "meta_epoch": "2025-12-03T17:17:32.013024",
        "meta_mean_motion": 1.0027148,
        "meta_eccentricity": 0.00611089,
        "meta_inclination": 49.5266,
        "meta_ra_of_asc_node": 261.1136,
        "meta_arg_of_pericenter": 188.632,
        "meta_mean_anomaly": 338.5579,
        "meta_ephemeris_type": 0,
        "meta_classification_type": "U",
        "meta_norad_cat_id": 40938,
        "meta_element_set_no": 999,
        "meta_rev_at_epoch": 3739,
        "meta_bstar": 0,
        "meta_mean_motion_dot": -1.53e-06,
        "meta_mean_motion_ddot": 0,
        "tle_line1": "1 40938U 15053A   25337.72050941 -.00000153  00000+0  00000+0 0  9994",
        "tle_line2": "2 40938  49.5266 261.1136 0061108 188.6320 338.5579  1.00271480 37397"
      },
      "geometry": {
        "type": "Point",
        "coordinates": [
          -56.901697438264144,
          38.16611313165665
        ]
      }
    }
  ]
}